SPACEMOBILE-004         
1 61049U 24163E   26186.89536546  .00015654  00000+0  71381-3 0  9998
2 61049  52.9649 222.8932 0007122 193.0409 167.0402 15.20802887100612
CZ-8A R/B               
1 66004U 25231K   26186.77836360  .00000048  00000+0  75287-4 0  9996
2 66004  50.0052 320.2216 0116506 289.4572  69.3787 14.30160421 37600
SZ-21 MODULE            
1 66515U 25246C   26187.08501798  .00052239  00000+0  29659-3 0  9998
2 66515  41.4706 189.4832 0006091 154.8325 205.2818 15.78117906 36725
SPACEMOBILE-006         
1 67232U 25309A   26187.12895901  .00001618  00000+0  92409-4 0  9991
2 67232  52.9956 244.8687 0010702 185.6932 174.3942 15.18641469 29478
SPACEMOBILE-008         
1 69589U 26139A   26187.16790571  .00000602  00000+0  50838-4 0  9993
2 69589  52.9938 176.3923 0004604  34.4337 325.6952 15.12792935  2855
SPACEMOBILE-009         
1 69590U 26139B   26187.16923104  .00000617  00000+0  51860-4 0  9997
2 69590  52.9928 176.3963 0004820  29.5652 330.5611 15.12686326  2858
SPACEMOBILE-010         
1 69591U 26139C   26187.17133663  .00000632  00000+0  52916-4 0  9992
2 69591  52.9932 176.4117 0004700  20.5529 339.5651 15.12517431  2861
